STARLINK-1350           
1 45535U 20025E   25208.97622369  .00009929  00000+0  34978-3 0  9994
2 45535  53.0765   3.2248 0000914  49.0442 311.0636 15.29927472291095
STARLINK-1362           
1 45538U 20025H   25208.88379313  .00000686  00000+0  64955-4 0  9995
2 45538  53.0560  35.5292 0001142  94.5139 265.5981 15.06386094291214
STARLINK-1368           
1 45540U 20025K   25209.22019471  .00000373  00000+0  43906-4 0  9999
2 45540  53.0564  34.2997 0001352  91.3386 268.7758 15.06394639290671
STARLINK-1371           
1 45542U 20025M   25208.79262096  .00001210  00000+0  10012-3 0  9997
2 45542  53.0562  36.2235 0001403  89.3071 270.8078 15.06393436291194
STARLINK-1372           
1 45543U 20025N   25208.89583166  .00001270  00000+0  10415-3 0  9996
2 45543  53.0564  35.7563 0001443  94.1646 265.9508 15.06389508290301
STARLINK-1373           
1 45544U 20025P   25209.04695452  .00001750  00000+0  13637-3 0  9999
2 45544  53.0557  35.0826 0001259  95.1394 264.9739 15.06395554290634
STARLINK-1294           
1 45551U 20025W   25209.43445254  .00069875  00000+0  17220-2 0  9996
2 45551  53.0554 355.6612 0002222 358.1862   1.9133 15.39948924291208
STARLINK-1323           
1 45553U 20025Y   25209.58335648  .00145776  00000+0  12264-2 0  9997
2 45553  53.0489 351.1919 0010343 255.4330 130.4257 15.68855481291291
STARLINK-1325           
1 45554U 20025Z   25209.09012032  .00025465  00000+0  86390-3 0  9997
2 45554  53.0640 346.6876 0004164  51.9540 308.1835 15.30382068291312
STARLINK-1327           
1 45555U 20025AA  25208.88661360  .00000558  00000+0  56354-4 0  9992
2 45555  53.0565  15.7983 0001336  88.6931 271.4211 15.06391948291489
STARLINK-1336           
1 45557U 20025AC  25209.58335648  .00152979  00000+0  15218-2 0  9996
2 45557  53.0499 354.7735 0009309 263.0707 107.6083 15.64692031291237
STARLINK-1342           
1 45558U 20025AD  25209.25002315  .00253543  00000+0  19384-2 0  9990
2 45558  53.0552 356.0740 0008879 263.0688   0.8384 15.70830004291181
STARLINK-1355           
1 45563U 20025AJ  25209.58335648  .00072682  00000+0  35275-3 0  9991
2 45563  53.0404 287.5321 0002449 347.2487 357.8821 15.81825288292187
STARLINK-1356           
1 45564U 20025AK  25208.75760276  .00001027  00000+0  87867-4 0  9999
2 45564  53.0557  16.3771 0001331  89.7528 270.3614 15.06392859291466
STARLINK-1357           
1 45565U 20025AL  25208.77650269  .00042276  00000+0  19431-2 0  9993
2 45565  53.0538  13.7831 0002008 210.6278 149.4600 15.19978555291506
STARLINK-1361           
1 45567U 20025AN  25208.77603915  .00000336  00000+0  41460-4 0  9991
2 45567  53.0565  16.2973 0001211  88.2108 271.9019 15.06391754291476
STARLINK-1363           
1 45568U 20025AP  25209.18889142  .00002255  00000+0  17027-3 0  9999
2 45568  53.0566  14.6869 0001350  86.1339 273.9804 15.06396276290928
