[{"OBJECT_NAME":"STARLINK-1350","OBJECT_ID":"2020-025E","EPOCH":"2025-07-27T23:25:45.726816","MEAN_MOTION":15.29927472,"ECCENTRICITY":9.14e-5,"INCLINATION":53.0765,"RA_OF_ASC_NODE":3.2248,"ARG_OF_PERICENTER":49.0442,"MEAN_ANOMALY":311.0636,"EPHEMERIS_TYPE":0,"CLASSIFICATION_TYPE":"U","NORAD_CAT_ID":45535,"ELEMENT_SET_NO":999,"REV_AT_EPOCH":29109,"BSTAR":0.00034978,"MEAN_MOTION_DOT":9.929e-5,"MEAN_MOTION_DDOT":0},{"OBJECT_NAME":"STARLINK-1362","OBJECT_ID":"2020-025H","EPOCH":"2025-07-27T21:12:39.726432","MEAN_MOTION":15.06386094,"ECCENTRICITY":0.0001142,"INCLINATION":53.056,"RA_OF_ASC_NODE":35.5292,"ARG_OF_PERICENTER":94.5139,"MEAN_ANOMALY":265.5981,"EPHEMERIS_TYPE":0,"CLASSIFICATION_TYPE":"U","NORAD_CAT_ID":45538,"ELEMENT_SET_NO":999,"REV_AT_EPOCH":29121,"BSTAR":6.4955e-5,"MEAN_MOTION_DOT":6.86e-6,"MEAN_MOTION_DDOT":0},{"OBJECT_NAME":"STARLINK-1368","OBJECT_ID":"2020-025K","EPOCH":"2025-07-28T05:17:04.822944","MEAN_MOTION":15.06394639,"ECCENTRICITY":0.0001352,"INCLINATION":53.0564,"RA_OF_ASC_NODE":34.2997,"ARG_OF_PERICENTER":91.3386,"MEAN_ANOMALY":268.7758,"EPHEMERIS_TYPE":0,"CLASSIFICATION_TYPE":"U","NORAD_CAT_ID":45540,"ELEMENT_SET_NO":999,"REV_AT_EPOCH":29067,"BSTAR":4.3906e-5,"MEAN_MOTION_DOT":3.73e-6,"MEAN_MOTION_DDOT":0},{"OBJECT_NAME":"STARLINK-1371","OBJECT_ID":"2020-025M","EPOCH":"2025-07-27T19:01:22.450944","MEAN_MOTION":15.06393436,"ECCENTRICITY":0.0001403,"INCLINATION":53.0562,"RA_OF_ASC_NODE":36.2235,"ARG_OF_PERICENTER":89.3071,"MEAN_ANOMALY":270.8078,"EPHEMERIS_TYPE":0,"CLASSIFICATION_TYPE":"U","NORAD_CAT_ID":45542,"ELEMENT_SET_NO":999,"REV_AT_EPOCH":29119,"BSTAR":0.00010012,"MEAN_MOTION_DOT":1.21e-5,"MEAN_MOTION_DDOT":0},{"OBJECT_NAME":"STARLINK-1372","OBJECT_ID":"2020-025N","EPOCH":"2025-07-27T21:29:59.855424","MEAN_MOTION":15.06389508,"ECCENTRICITY":0.0001443,"INCLINATION":53.0564,"RA_OF_ASC_NODE":35.7563,"ARG_OF_PERICENTER":94.1646,"MEAN_ANOMALY":265.9508,"EPHEMERIS_TYPE":0,"CLASSIFICATION_TYPE":"U","NORAD_CAT_ID":45543,"ELEMENT_SET_NO":999,"REV_AT_EPOCH":29030,"BSTAR":0.00010415,"MEAN_MOTION_DOT":1.27e-5,"MEAN_MOTION_DDOT":0},{"OBJECT_NAME":"STARLINK-1373","OBJECT_ID":"2020-025P","EPOCH":"2025-07-28T01:07:36.870528","MEAN_MOTION":15.06395554,"ECCENTRICITY":0.0001259,"INCLINATION":53.0557,"RA_OF_ASC_NODE":35.0826,"ARG_OF_PERICENTER":95.1394,"MEAN_ANOMALY":264.9739,"EPHEMERIS_TYPE":0,"CLASSIFICATION_TYPE":"U","NORAD_CAT_ID":45544,"ELEMENT_SET_NO":999,"REV_AT_EPOCH":29063,"BSTAR":0.00013637,"MEAN_MOTION_DOT":1.75e-5,"MEAN_MOTION_DDOT":0},{"OBJECT_NAME":"STARLINK-1294","OBJECT_ID":"2020-025W","EPOCH":"2025-07-28T10:25:36.699456","MEAN_MOTION":15.39948924,"ECCENTRICITY":0.0002222,"INCLINATION":53.0554,"RA_OF_ASC_NODE":355.6612,"ARG_OF_PERICENTER":358.1862,"MEAN_ANOMALY":1.9133,"EPHEMERIS_TYPE":0,"CLASSIFICATION_TYPE":"U","NORAD_CAT_ID":45551,"ELEMENT_SET_NO":999,"REV_AT_EPOCH":29120,"BSTAR":0.001722,"MEAN_MOTION_DOT":0.00069875,"MEAN_MOTION_DDOT":0},{"OBJECT_NAME":"STARLINK-1323","OBJECT_ID":"2020-025Y","EPOCH":"2025-07-28T14:00:01.999872","MEAN_MOTION":15.68855481,"ECCENTRICITY":0.0010343,"INCLINATION":53.0489,"RA_OF_ASC_NODE":351.1919,"ARG_OF_PERICENTER":255.433,"MEAN_ANOMALY":130.4257,"EPHEMERIS_TYPE":0,"CLASSIFICATION_TYPE":"U","NORAD_CAT_ID":45553,"ELEMENT_SET_NO":999,"REV_AT_EPOCH":29129,"BSTAR":0.0012264,"MEAN_MOTION_DOT":0.00145776,"MEAN_MOTION_DDOT":0},{"OBJECT_NAME":"STARLINK-1325","OBJECT_ID":"2020-025Z","EPOCH":"2025-07-28T02:09:46.395648","MEAN_MOTION":15.30382068,"ECCENTRICITY":0.0004164,"INCLINATION":53.064,"RA_OF_ASC_NODE":346.6876,"ARG_OF_PERICENTER":51.954,"MEAN_ANOMALY":308.1835,"EPHEMERIS_TYPE":0,"CLASSIFICATION_TYPE":"U","NORAD_CAT_ID":45554,"ELEMENT_SET_NO":999,"REV_AT_EPOCH":29131,"BSTAR":0.0008639,"MEAN_MOTION_DOT":0.00025465,"MEAN_MOTION_DDOT":0},{"OBJECT_NAME":"STARLINK-1327","OBJECT_ID":"2020-025AA","EPOCH":"2025-07-27T21:16:43.415040","MEAN_MOTION":15.06391948,"ECCENTRICITY":0.0001336,"INCLINATION":53.0565,"RA_OF_ASC_NODE":15.7983,"ARG_OF_PERICENTER":88.6931,"MEAN_ANOMALY":271.4211,"EPHEMERIS_TYPE":0,"CLASSIFICATION_TYPE":"U","NORAD_CAT_ID":45555,"ELEMENT_SET_NO":999,"REV_AT_EPOCH":29148,"BSTAR":5.6354e-5,"MEAN_MOTION_DOT":5.58e-6,"MEAN_MOTION_DDOT":0},{"OBJECT_NAME":"STARLINK-1336","OBJECT_ID":"2020-025AC","EPOCH":"2025-07-28T14:00:01.999872","MEAN_MOTION":15.64692031,"ECCENTRICITY":0.0009309,"INCLINATION":53.0499,"RA_OF_ASC_NODE":354.7735,"ARG_OF_PERICENTER":263.0707,"MEAN_ANOMALY":107.6083,"EPHEMERIS_TYPE":0,"CLASSIFICATION_TYPE":"U","NORAD_CAT_ID":45557,"ELEMENT_SET_NO":999,"REV_AT_EPOCH":29123,"BSTAR":0.0015218,"MEAN_MOTION_DOT":0.00152979,"MEAN_MOTION_DDOT":0},{"OBJECT_NAME":"STARLINK-1342","OBJECT_ID":"2020-025AD","EPOCH":"2025-07-28T06:00:02.000160","MEAN_MOTION":15.70830004,"ECCENTRICITY":0.0008879,"INCLINATION":53.0552,"RA_OF_ASC_NODE":356.074,"ARG_OF_PERICENTER":263.0688,"MEAN_ANOMALY":0.8384,"EPHEMERIS_TYPE":0,"CLASSIFICATION_TYPE":"U","NORAD_CAT_ID":45558,"ELEMENT_SET_NO":999,"REV_AT_EPOCH":29118,"BSTAR":0.0019384,"MEAN_MOTION_DOT":0.00253543,"MEAN_MOTION_DDOT":0},{"OBJECT_NAME":"STARLINK-1355","OBJECT_ID":"2020-025AJ","EPOCH":"2025-07-28T14:00:01.999872","MEAN_MOTION":15.81825288,"ECCENTRICITY":0.0002449,"INCLINATION":53.0404,"RA_OF_ASC_NODE":287.5321,"ARG_OF_PERICENTER":347.2487,"MEAN_ANOMALY":357.8821,"EPHEMERIS_TYPE":0,"CLASSIFICATION_TYPE":"U","NORAD_CAT_ID":45563,"ELEMENT_SET_NO":999,"REV_AT_EPOCH":29218,"BSTAR":0.00035275,"MEAN_MOTION_DOT":0.00072682,"MEAN_MOTION_DDOT":0},{"OBJECT_NAME":"STARLINK-1356","OBJECT_ID":"2020-025AK","EPOCH":"2025-07-27T18:10:56.878464","MEAN_MOTION":15.06392859,"ECCENTRICITY":0.0001331,"INCLINATION":53.0557,"RA_OF_ASC_NODE":16.3771,"ARG_OF_PERICENTER":89.7528,"MEAN_ANOMALY":270.3614,"EPHEMERIS_TYPE":0,"CLASSIFICATION_TYPE":"U","NORAD_CAT_ID":45564,"ELEMENT_SET_NO":999,"REV_AT_EPOCH":29146,"BSTAR":8.7867e-5,"MEAN_MOTION_DOT":1.027e-5,"MEAN_MOTION_DDOT":0},{"OBJECT_NAME":"STARLINK-1357","OBJECT_ID":"2020-025AL","EPOCH":"2025-07-27T18:38:09.832416","MEAN_MOTION":15.19978555,"ECCENTRICITY":0.0002008,"INCLINATION":53.0538,"RA_OF_ASC_NODE":13.7831,"ARG_OF_PERICENTER":210.6278,"MEAN_ANOMALY":149.46,"EPHEMERIS_TYPE":0,"CLASSIFICATION_TYPE":"U","NORAD_CAT_ID":45565,"ELEMENT_SET_NO":999,"REV_AT_EPOCH":29150,"BSTAR":0.0019431,"MEAN_MOTION_DOT":0.00042276,"MEAN_MOTION_DDOT":0},{"OBJECT_NAME":"STARLINK-1361","OBJECT_ID":"2020-025AN","EPOCH":"2025-07-27T18:37:29.782560","MEAN_MOTION":15.06391754,"ECCENTRICITY":0.0001211,"INCLINATION":53.0565,"RA_OF_ASC_NODE":16.2973,"ARG_OF_PERICENTER":88.2108,"MEAN_ANOMALY":271.9019,"EPHEMERIS_TYPE":0,"CLASSIFICATION_TYPE":"U","NORAD_CAT_ID":45567,"ELEMENT_SET_NO":999,"REV_AT_EPOCH":29147,"BSTAR":4.146e-5,"MEAN_MOTION_DOT":3.36e-6,"MEAN_MOTION_DDOT":0},{"OBJECT_NAME":"STARLINK-1363","OBJECT_ID":"2020-025AP","EPOCH":"2025-07-28T04:32:00.218688","MEAN_MOTION":15.06396276,"ECCENTRICITY":0.000135,"INCLINATION":53.0566,"RA_OF_ASC_NODE":14.6869,"ARG_OF_PERICENTER":86.1339,"MEAN_ANOMALY":273.9804,"EPHEMERIS_TYPE":0,"CLASSIFICATION_TYPE":"U","NORAD_CAT_ID":45568,"ELEMENT_SET_NO":999,"REV_AT_EPOCH":29092,"BSTAR":0.00017027,"MEAN_MOTION_DOT":2.255e-5,"MEAN_MOTION_DDOT":0}]
